,id,name,lat,lng,checkins,address,cluster,color
0,4b78d398f964a520cee32ee3,Starbucks Coffee,14.734710319139245,121.05759859085084,10428,"Ground Flr, SM City Fairview (Annex 1)",7,#97f0aa
1,53055beb498e87041e7204f9,Starbucks Coffee,14.73573458748997,121.06021280022443,3793,"Fairview Terraces, Quirino Hwy",7,#97f0aa
2,4bc1f1a6f8219c74a0f7b310,The Coffee Bean & Tea Leaf,14.73630812,121.05813540000001,17441,"G/F Gateway Mall, Gen Roxas Ave",7,#97f0aa
3,4e5b077352b1b78b81b213b9,Starbucks Coffee,14.734639098363028,121.05947385817228,4116,"2nd Flr, SM City Fairview (Main Bldg)",7,#97f0aa
4,4ceb3522e888f04d2161516b,Starbucks Coffee,14.553593420927859,121.05066218432563,40149,"Crossroads, Bonifacio Global City",0,#92c6ff
5,5312cb21498e14478618f0b1,Seattle's Best Coffee,14.737156420989225,121.05930031809277,1228,"Fairview Terraces, Quirino Hwy",7,#97f0aa
6,4dd26268cc3f7f8c122e7e1e,Starbucks Coffee,14.552860222352331,121.02511924425886,28782,"Ground Flr, 6750 Ayala Tower, 6750 Ayala Ave",0,#92c6ff
7,4f7b3de0e4b03c16c03f9e29,Starbucks Coffee,14.680478571562517,121.03178501129149,18986,St. Charbel St,1,#97f0aa
8,4b71144cf964a52029392de3,Starbucks Coffee,14.630510366424213,121.03451013565063,28172,212 Tomas Morato Ave,1,#97f0aa
9,52b91335498e393e561ad5b1,Starbucks Coffee,14.574493705273314,121.06247438253872,11133,"Unit R1, Capitol Commons, Shaw Blvd., Pasig City",8,#ff9f9a
10,4b739687f964a5201cb52de3,Starbucks Coffee,14.536376522109878,120.98079085350037,14120,"Ground Flr, SM Mall of Asia (IMAX Theatre)",5,#b0e0e6
11,4c84497088e6199cd838c3d4,Starbucks Coffee,14.765559153982622,120.96259970224123,15080,"Petron Service Station, North Luzon Expressway",4,#fffea3
12,4ba0363ef964a520da6137e3,Starbucks Coffee,14.553698672910835,121.01975798606873,15887,"Ground Flr, Greenbelt 1, Paseo de Roxas Ave",0,#92c6ff
13,4b8cf865f964a520b2e232e3,Starbucks Coffee,14.55109212916509,121.05012059211731,19120,"B:3 Bonifacio High Street, 7th Ave",0,#92c6ff
14,4c07ae463cbed13ae0020cc0,Starbucks Coffee,14.621298413676335,121.05381408332244,23215,G/F Araneta Coliseum Circle,1,#97f0aa
15,4c1b90333b2ab713b02b3325,Starbucks Coffee,14.645209301302192,121.05182647705078,17717,"243 Matalino St, Central, Diliman, Quezon City",1,#97f0aa
16,5018e91ae4b0d57076745d31,Starbucks Coffee,14.571528267839609,121.04835033416748,10724,"Upper Ground Flr, Forum Robinsons, Epifanio delos Santos Ave",0,#92c6ff
17,4bc0831f920eb713c0fe182c,Starbucks Coffee,14.550894819819566,121.055828332901,10776,"Ground Flr, Market! Market!",0,#92c6ff
18,4b8bb631f964a520fea732e3,Starbucks Coffee,14.609654044538289,121.08119130134584,25725,"Ground Flr, Eastwood City Walk 2",8,#ff9f9a
19,4bb07bc3f964a520b4473ce3,Starbucks Coffee,14.618011345089474,120.9853720664978,17924,"Upper Ground Flr, SM City San Lazaro",9,#d0bbff
20,4b5d3d15f964a520725729e3,Starbucks Coffee,14.561061213834254,121.02736473083496,11686,"G/F Pacific Star Bldg, Makati Ave",0,#92c6ff
21,4b87f48ef964a5200dd531e3,Starbucks Coffee,14.562809574899221,120.99501172772987,16426,"G/F Torre Lorenzo Plaza, Pablo Ocampo Sr Ave",5,#b0e0e6
22,4bf0f938a09076b0a9c829d4,Starbucks Coffee,14.606072247018528,121.01874947547913,16496,"Ground Flr, Mezza Residences",9,#d0bbff
23,502f9034e4b047efed701d5d,Starbucks Coffee,14.602207865006287,121.07970915285108,12860,Metropoli Dr,8,#ff9f9a
24,4b605b82f964a52086e129e3,Starbucks Coffee,14.562670763393069,121.02249383926392,9612,"G/F, GS Yupangco Bldg, Jupiter St",0,#92c6ff
25,50c933bce4b0ae820c015375,The Coffee Bean & Tea Leaf,14.55015298,121.02479640000001,7921,"Ground Flr, Glorietta 2",0,#92c6ff
26,56393fd0cd104fbea06ae3dd,Starbucks Coffee,14.623490211115678,121.11391387335098,3119,"Marcos Hwy, Brgy Mayamot",8,#ff9f9a
27,4ba3b0def964a520df5438e3,Starbucks Coffee,14.830936847360391,120.90892910957336,15007,"Shell Oasis, North Luzon Expressway",4,#fffea3
28,4cc5fad0bde8f04d544eb44b,Starbucks Coffee,14.640413570637204,121.00051045417786,14779,"Ground Flr, Banawe Square",9,#d0bbff
29,4c6c91a765eda093007c4cd0,Starbucks Coffee,14.551974826709307,121.0220217704773,25435,"G/F Greenbelt 3, Makati Ave",0,#92c6ff
30,5007dba2e4b09da853ad40cb,The Coffee Bean & Tea Leaf,14.55244515,121.02087250000001,15337,"G/F Greenbelt 5, Greenbelt Dr",0,#92c6ff
31,4b62e94ff964a52086582ae3,Starbucks Coffee,14.657815759549234,121.0560429096222,25554,"Ground Flr, UP-Ayala Land Technohub",1,#97f0aa
32,4c62ae477c9def3be8c1d31c,Starbucks Coffee,14.574449514246345,120.98453170380657,12151,"G/F Robinsons Place Manila Midtown Wing, Adriatico St",9,#d0bbff
33,4b9088def964a520e58e33e3,Starbucks Coffee,14.652922913239472,121.03407836623114,21479,"4th Flr, TriNoma, Epifanio delos Santos Ave",1,#97f0aa
34,4b5ab681f964a520c2d128e3,Starbucks Coffee,14.58749001617683,121.06381227878687,16112,Metrowalk Commercial Complex,8,#ff9f9a
35,4d4d1e46b887a1cd1c41b8a0,Starbucks Coffee,14.551339221546044,121.01351619342569,11343,"Ground Flr, WalterMart, Don Chino Roces Ave",0,#92c6ff
36,4b6d47cbf964a5201d6f2ce3,Starbucks Coffee,14.451916811553906,120.97722887992859,12844,"Yellow Cab Bldg, 268 Alabang-Zapote Rd",3,#d0bbff
37,5209e2f211d233c2b9811ca2,Starbucks Coffee,14.531082705525,121.05281757710735,7284,"Ground Flr, Science Hub Tower 4, McKinley Hill",0,#92c6ff
38,4c39ab03ae2da59396e002c6,Starbucks Coffee,14.635493166554792,121.10102891921996,11526,"G/F Blue Wave Marquinton, Don Juan Sumulong Hwy",8,#ff9f9a
39,4df87e2588778675b548a1e1,Starbucks Coffee,14.39300922947588,121.03816574462068,9852,Shell Service Station SLEX Southbound,3,#d0bbff
40,4bdaead33904a5938cd8479e,Starbucks Coffee,14.558828593388945,120.9840202331543,12362,"Harbour Square, CCP Complex, Pedro Bukaneg St",5,#b0e0e6
41,4c49b09b93249c740df3104d,Starbucks Coffee,14.584652918811365,121.05726599693298,15297,"Ground Flr, SM Megamall (Bldg. A)",8,#ff9f9a
42,4bd55ec6cfa7b71396ac25da,Starbucks Coffee,14.537913554443293,120.98101615905762,12991,G/F One E-Com Center,5,#b0e0e6
43,4c4b996846240f47a59b87f3,Starbucks Coffee,14.484416655356036,120.99247442400852,9475,"Ground Flr, SM City Sucat",5,#b0e0e6
44,542a70f3498e1ba55550d6f5,Starbucks Coffee,14.537198863783836,120.98913608033399,3922,Blue Bay Walk,5,#b0e0e6
45,4baa57caf964a52024613ae3,Starbucks Coffee,14.4243313823511,121.02730035781859,16416,"G/F El Molito, Madrigal Business Park, Madrigal Ave",3,#d0bbff
46,4b6b7fe0f964a520970c2ce3,Starbucks Coffee,14.422627311538715,121.0294461250305,13526,"Ground Flr, Corte de las Palmas, Alabang Town Center",3,#d0bbff
47,51934873498e3ea620f2b9d3,Starbucks Coffee,14.54713967819951,121.05454746184013,7548,"Upper G/F, SM Aura Premier",0,#92c6ff
48,547049f4498e6ff0921a7c00,Starbucks Coffee,14.504967082891106,121.00512680750458,1813,"Terminal 1, Ninoy Aquino International Airport",5,#b0e0e6
49,4bd127bfa8b3a5934a6d655f,Starbucks Coffee,14.425085887803931,121.0395599009032,10985,"2nd Flr, F@stbytes2, Northgate Cyberzone",3,#d0bbff
50,4dc75638b3ad20ab9e44bc68,Saint Cafe- Fairview,14.733797228705887,121.05804920196532,5,Regalado Hwy. (G/F SM Fairview),7,#97f0aa
51,4b9c888cf964a520bd6e36e3,UCC Vienna Café,14.601026485432074,121.055109500885,3065,1/F Design Mix Bldg,8,#ff9f9a
52,500d42a8e4b01014fc921a42,UCC Vienna Café,14.63044808070665,121.00266695022584,2299,"Ground Flr, RBL Place",9,#d0bbff
53,5285ea0b498eac32e5ef6e8a,Cafe-UK Co.,14.608629501434278,120.98745567120905,8372,1233 J. Barlin St,9,#d0bbff
54,51ff4d1e8bbd7a2235586f05,CAFÉ+ Coffee.Brunch.Dessert,14.869520237960625,120.86069720022034,3054,Maharlika Hi-way,4,#fffea3
55,4b638617f964a520bd802ae3,UCC Café Terrace,14.55261956348173,121.0444309227679,6347,Burgos Circle,0,#92c6ff
56,4e91ad9d0039790510ac62cf,Turbo Café,14.724362961433973,121.0556727133201,661,Mindanao Ave. Ext.,7,#97f0aa
57,4b9b5d04f964a520d10236e3,Café Xocolat,14.641846072599867,121.07393860816956,5201,"B. Gonzales Street, Loyola Heights",1,#97f0aa
58,4b4b93e8f964a520daa026e3,The Chocolate Kiss Café,14.657971454375973,121.06675565242766,8493,"Ang Bahay ng Alumni, University of the Philippines Diliman",1,#97f0aa
59,4c51ed19b6dabe9a4d9a8512,Café France,14.508995038403961,121.01272096285436,4081,"Terminal 2, Domestic Area, Ninoy Aquino International Airport",5,#b0e0e6
60,50ed4ecee4b0114e7184a905,UCC Park Café,14.614188377334663,121.0384680931353,2038,"Upper Ground Flr, Robinsons Magnolia",1,#97f0aa
61,51723d2ee4b05eedc5ccc3d4,Café Kivhan Coffee®,14.608386272491579,120.98785897152355,3994,"1055 P Noval St, Sampaloc",9,#d0bbff
62,4f604708e4b0ba0ce01b76cb,UCC Café Terrace,14.549991348458414,121.04432702064514,2232,Forbes Town Center,0,#92c6ff
63,4ba0e495f964a520338537e3,UCC Café Terrace,14.421806443507853,121.03429019451141,2734,Westgate Center Alabang,3,#d0bbff
64,4bcef7f2fb84c9b69a8c243e,UCC Vienna Café,14.599894806960368,121.0692662000656,4599,Corinthian Hills Clubhouse,8,#ff9f9a
65,4c333510213c2d7f5f85365d,Café de Lipa,14.550558790404901,121.0553032289196,2667,G/F Market! Market!,0,#92c6ff
66,4e7763d01495be5171f87e8e,Café Breton,14.657582217101655,121.05618238449095,2979,UP-Ayala TechnoHub,1,#97f0aa
67,4bef76def2712d7fc2d7fbd8,UCC Vienna Café,14.552818201512778,121.02231938227345,2621,"3rd Flr, Greenbelt 5",0,#92c6ff
68,4bc2f1acb492d13a6110a860,UCC Vienna Café,14.534351361833643,120.98255038261414,1916,"2nd Flr, SM Mall of Asia (Main Mall)",5,#b0e0e6
69,55856edf498ebc42a0589687,Book & Borders Café,14.629189774843404,121.03406716774393,1111,Tomas Morato Avenue,1,#97f0aa
70,54fe8858498edf0d9c218e50,Velvet Friends Cat Cafe,14.537904193950036,120.9897690283976,446,"unit 219, 2nd flr., cluster H, Blue bay walk",5,#b0e0e6
71,5435042e498e3d69552f11f8,Cafe Ilustrio,14.698117436007092,121.06266471178343,159,Brescia Lilac Ave,7,#97f0aa
72,4bdc2da6f1499c743a6338f3,UCC Park Café,14.609139562078454,121.0801009506431,2987,"Ground Level, Eastwood Mall",8,#ff9f9a
73,4d1098e0a3d9721e06e4d5fd,UCC Park Café Express,14.54737437606336,121.0267210006714,2623,Petron Service Station,0,#92c6ff
74,4c6ecd84df6b8cfa5e33b34d,UCC Café Terrace,14.518786897646574,121.01992824875141,3320,"Newport Mall, Resorts World Manila",5,#b0e0e6
75,4bc86d970050b7131c50ba3b,UCC Vienna Café,14.585971570730415,121.05943322181702,3542,"Ground Flr, The Podium",8,#ff9f9a
76,4bec076e415e20a117f9e6bb,UCC Café Terrace,14.557748620041918,121.02282643318176,1813,"Ground Flr, Paseo Center",0,#92c6ff
77,50e562eae4b0515dcd5e2d20,Bellini's Cafe and Restaurant,14.637345443115931,121.097355575676,542,"Shoe Avenue, Sto. Nino",1,#97f0aa
78,4d4d71bc87362c0f702bd182,Don Antonio Café,14.526389764606142,121.15295864486488,646,"Angono, Rizal",8,#ff9f9a
79,50a638efe4b04eb9cbfe74a3,Illy Café Delizio,14.550100938979032,121.02574080481355,281,"Ground Flr, National Book Store, Glorietta 1",0,#92c6ff
80,4ee04970754ad33b5bc67081,Le Amoretto Cafe and Bar,14.52028896803728,121.0129988193512,471,NAIA Terminal 3,5,#b0e0e6
81,4e5b116c1fc7864a236ad263,Island Cove Cafe,14.46131440310167,120.92227147281193,164,Island Cove Resort and Leisure Park,3,#d0bbff
205,4f2bd53be4b00637a59993a4,Starbucks Coffee,14.753101697136279,120.95610057094366,7639,"Ground Flr, SM City Marilao, McArthur Hwy",4,#fffea3
210,4beab5ee415e20a18151e5bb,Starbucks Coffee,14.655875144804794,121.03078036681283,17715,"Sky Garden, SM City North EDSA Complex",1,#97f0aa
212,4bc0789aabf495210741bf93,Starbucks Coffee,14.43243593092472,121.01039171218872,15536,"Ground Flr, SM Southmall, Alabang-Zapote Rd",3,#d0bbff
213,4b5cf924f964a5203e4d29e3,Starbucks Coffee,14.561043675776745,121.01557704830687,14486,"Ground Flr, Aegis PeopleSupport Center, Ayala Ave",0,#92c6ff
246,4eef1691722ea77619855ccd,Fior Cafe 3rd Level SM North Edsa,14.656302898481721,121.0323257903289,153,SM City North EDSA,1,#97f0aa
247,4fe2debbe4b044a5595e6d76,RawMatters Café,14.644212794471946,121.02730035781859,132,53 West Ave,1,#97f0aa
248,4d9e7ebc91af6ea8611e86e8,Cytherea Cafe,14.657647090028744,120.95252305269241,334,17 Manapat St.,9,#d0bbff
366,5710a159498eee1ad929f3c5,Starbucks Coffee,14.685766830370016,120.97635878503372,1185,"Ground Flr, SM Center Valenzuela, MacArthur Hwy",9,#d0bbff
380,5077a857e4b05b62b20a8ee8,Tully's Coffee,14.692673067853587,120.96900522708893,3805,"304 MacArthur Hwy, Brgy Karuhatan",9,#d0bbff
419,4e68bd6d1fc75c9202ab6db8,Bueno Cafe,14.601151073531874,120.99251747131348,2,G/F LRT-2 Legarda Station,9,#d0bbff
506,4c81f0998ce59c749eb976b0,Starbucks Coffee,14.699159224831906,121.06727600097656,5521,"Upper Ground Flr, Commercial Arcade, FEU-NRMF Hospital",7,#97f0aa
514,4d5d1e1c935e60fce6f53cc0,Starbucks Coffee,14.68206545306956,121.08517741495173,5805,"G/F Convergys Bldg, Diliman Commercial Center, Commonwealth Ave",7,#97f0aa
542,56f7940a498e706cc458f600,Starbucks Coffee,14.65419684927343,121.03181625070476,658,"2nd Flr, Landmark Annex, TriNoMa",1,#97f0aa
555,5309fd07498eb4c01cd882dc,The Coffee Bean & Tea Leaf,14.65355705,121.03456429999999,4275,TriNoma Level 3 Outdoor,1,#97f0aa
692,4d3aaadd979ea1439fff92fc,Starbucks Coffee,14.65683364384706,121.02886535804086,5096,"Ground Flr, City Center, SM City North EDSA Complex",1,#97f0aa
707,506edde7e4b0d9d5ccdfca03,Starbucks Coffee,14.655983742109914,121.03227853775023,6455,"2nd Flr, The Block, SM City North EDSA Complex",1,#97f0aa
860,505ee191e4b069649f3adb2f,D' Cream Coffee & Tea,14.684453962070815,120.97696379034934,392,"G/F SM Center Valenzuela, McArthur Hwy",9,#d0bbff
916,5224824b11d2f1686949b4d4,See's Cafe,14.590143934080293,120.98323214010651,6,SM City Manila,9,#d0bbff
917,524ab628498e4e1eb2c5993c,Roots and Herbs Coffee Shop,14.68120494194385,120.97887962061772,217,"McArthur Hwy, Marulas",9,#d0bbff
1008,4b500af9f964a520b71b27e3,The Coffee Bean & Tea Leaf,14.657245199999998,121.0558822,11782,"Ground Flr, U.P.-Ayala Land Technohub",1,#97f0aa
1016,5052f7fde4b06562e25d930d,Seattle's Best Coffee,14.645369616404908,121.05203940078763,4254,Matalino St.,1,#97f0aa
1017,4d78d976db7c54818d1637f2,Starbucks Coffee,14.65419922990222,121.03462149161415,5917,"Ground Flr, Mindanao Entrance, TriNoma",1,#97f0aa
1020,4d2948753c79548197a3d69b,Starbucks Coffee,14.652932075649693,121.03337287902832,7198,"2nd Flr, TriNoma",1,#97f0aa
1021,4bb4ab52f1b976b0e9211f20,Starbucks Coffee,14.64217248284704,121.03437512576413,6059,"Ground Flr, Sunnymede IT Center",1,#97f0aa
1023,565c00de498e1bd8683f17b6,Starbucks Coffee,14.632913543528844,121.04330778121948,1281,118 Timog Ave,1,#97f0aa
1024,4ca73479931bb60cd69a9ae2,The Coffee Bean & Tea Leaf,14.64256401,121.0397682,7934,Centris Walk,1,#97f0aa
1028,4b70ea2af964a5201c342de3,Starbucks Coffee,14.639102306307409,121.03586451163734,11807,"Ground Flr, ELJ Communication Center",1,#97f0aa
1030,4bbd9fac593fef3b19a40356,The Coffee Bean & Tea Leaf,14.63213222,121.0345283,9004,"Ground Flr, Bellagio Square",1,#97f0aa
1031,4be52b002468c928acc2ff42,Starbucks Coffee,14.635192125591722,121.03570103645326,8279,"Ground Flr, Imperial Suites",1,#97f0aa
1032,4b583173f964a520894d28e3,Starbucks Coffee,14.6365727583359,121.07405930757523,14736,Katipunan Ave,1,#97f0aa
1042,4cd2a0e64aa9f04deb2258cb,Starbucks Coffee,14.636292480210983,121.02756857872008,9933,"Ground Flr, Victoria Towers",1,#97f0aa
1045,4bf4078398ac0f47697b63a8,Starbucks Coffee,14.31076403807912,121.0725411772728,10699,"Shell Service Station, South Luzon Expressway (Northbound)",3,#d0bbff
1049,4bdbcad22a3a0f472fcdb0b6,The Coffee Bean & Tea Leaf,14.65356434,121.03456809999999,14493,"M3 Level (Indoor), TriNoMa",1,#97f0aa
1054,4ba737cef964a520658639e3,Bo's Coffee,14.64217694808167,121.07441067695619,2645,Katipunan Ave.,1,#97f0aa
1088,532f99fc498e94521ba3c913,Duvilan Café,14.673619089457068,121.05100369068951,42,Congressional Avenue extension,1,#97f0aa
1089,50167a6ae4b0be172cb12764,Cheesecake Café,14.601180841921186,121.05370211674334,89,Northeast Square,8,#ff9f9a
1090,4c19b9064ff90f4760721049,Mrs. Fields Cookie Café,14.653124228562586,121.03382080076167,1159,4th Flr. TriNoma,1,#97f0aa
1091,4e0c6434aeb7af850d68112c,Cafe Agnes,14.617450530845472,121.09967242019842,117,Sta. Lucia East Grand mall,8,#ff9f9a
1092,50f79f3be4b0703270c8a7bc,Café Alejandro,14.669861980896115,121.0528287738522,115,Unit 1A 400 Tandang Sora Avenue,1,#97f0aa
1223,4bae056df964a520c17b3be3,Starbucks Coffee,14.621457990118992,121.02263331413269,9513,E. Rodriguez Sr. Ave,1,#97f0aa
1392,4bf9d4b2633d9c747af10743,Starbucks Coffee,14.600974573703,120.97334504127502,5314,"Ground Flr, Old BPI Bldg",9,#d0bbff
1502,4e6d7b9dae60394c60d17312,The Coffee Bean & Tea Leaf,14.64075207,121.074265,7476,"Ground Flr, Regis Center",1,#97f0aa
1506,52917671498e0a1987210eec,CRAFT Coffee Revolution,14.640969879242675,121.07336744790408,1262,88 Loyola Serviced Residences,1,#97f0aa
1509,4d75d92c935a8eece386a3de,Starbucks Coffee,14.625953081427514,121.08384132385254,7877,"Ground Flr, SM City Marikina",8,#ff9f9a
1510,4d31a9c772a8b1f7f72f96d0,Seattle's Best Coffee,14.637466134906935,121.07432460223636,2357,Katipunan Ave.,1,#97f0aa
1511,55728807498e61b3f8980725,Starbucks Coffee,14.647966279995806,121.07697486877441,1243,U.P. Town Center,1,#97f0aa
1517,4cdd895dc498594143444135,Starbucks Coffee,14.609766941382393,121.07904869082115,18333,"Ground Flr, 1880 Bldg",8,#ff9f9a
1522,4b8aa563f964a520507732e3,The Coffee Bean & Tea Leaf,14.60995973,121.07992040000002,12075,"Ground Flr, 1800 Eastwood Avenue",8,#ff9f9a
1529,4c16396b82a3c9b6acedfff8,Starbucks Coffee,14.617627227685631,121.09965562820436,9206,"Ground Flr, Sta. Lucia East Grand Mall",8,#ff9f9a
1530,50320335e4b0543f9a5f5a5b,J.CO Donuts & Coffee,14.60920137052617,121.0795692247583,13554,"Ground Flr, 1880 Eastwood Avenue Bldg",8,#ff9f9a
1531,50afb03ee4b046a4fbea65ca,Starbucks Coffee,14.607582762448661,121.07891435911615,4889,"Ground Flr, Citibank Square",8,#ff9f9a
1549,557aa3bb498e5325af05b7d9,Seattle's Best Coffee,14.620614146039381,121.05437951295576,1022,Shopwise Arcade Cubao,1,#97f0aa
1563,57861b23498e049d33105360,55Square Cafe,14.634046,121.07462,14,"G/F Alcal Bldg, 285 Katipunan Ave",1,#97f0aa
1571,51a7dffc498ec16220d0eb42,"Mc Cafe @ Ateneo, Katipunan",14.635915953873226,121.07422384950792,84,Katipunan Avenue,1,#97f0aa
1582,5610f12c498eafa18f31e03f,Cafe MITHI,14.636424741620404,121.06110848147443,88,"131 V. Luna Ext., Diliman",1,#97f0aa
1585,53170da5498e731869ab3101,Drift Cafe,14.64379,121.074495,51,Katipunan Ave,1,#97f0aa
1756,51b6b055498e115273edc75e,UCC Park Café,14.582462070212307,121.05538845062254,318,"Ground Flr, Shangri-La Plaza (North Wing)",8,#ff9f9a
1757,518f8756498ea99a7fb43c4f,Tobey's Games Cafe Manila,14.581200505325134,121.05099499225616,98,"Unit S, 65 Mariveles St.",8,#ff9f9a
1847,504c6189e4b0f228d8aff853,Starbucks Coffee,14.61405748451632,121.03835611229236,9646,"Upper Ground Flr, Robinsons Magnolia (The Plaza)",1,#97f0aa
1850,52a32b22498e7eeb2205efe1,Starbucks Coffee,14.623988574979188,121.0313906994795,2745,Hemady Square,1,#97f0aa
1851,502b932ee4b09e039959f05e,The Coffee Bean & Tea Leaf,14.61473622,121.03818190000001,6945,"2nd Flr, Robinsons Magnolia",1,#97f0aa
1855,51498f9de4b076132cb54bce,Seattle's Best Coffee,14.631148794010189,121.03441894054413,2441,114 Tomas Morato Ave,1,#97f0aa
1863,567eb732498e729ea2bd3384,Starbucks Coffee,14.59731995718487,121.03957414627077,1195,"Ground Flr, G Square, Wilson St",8,#ff9f9a
1866,523569867e488a4472ac2c69,J.CO Donuts & Coffee,14.620375156293852,121.05435711975346,3786,"Ground Flr, Shopwise Arcade, Araneta Center",1,#97f0aa
1870,4bc9127568f976b0babd5c83,Starbucks Coffee,14.603064729805244,121.0512780147721,7745,GF Promenade 2,8,#ff9f9a
1882,4b93ab3cf964a5204f4c34e3,Baang Coffee,14.632669593705366,121.03485345840454,4284,258-D Tomas Morato,1,#97f0aa
1891,4fa950ade4b064af5091c6b9,Craft Coffee Workshop,14.622095475246462,121.02665914067735,1706,"66 Broadway Ave, New Manila",1,#97f0aa
1892,51f1b2ae498ecdca97f8a7a5,Starbucks Coffee,14.588110469647605,121.04519605636595,6923,515 Shaw Blvd,8,#ff9f9a
1969,4cc18ebd67a3b1f72a2dc90e,Starbucks Coffee,14.607079309029992,120.98893404006958,12140,G/F iTower Manila,9,#d0bbff
1970,4ba39fd6f964a520344d38e3,Starbucks Coffee,14.610536507430265,120.9868848323822,8566,"Ground Flr, Pacific Suites Bldg",9,#d0bbff
1971,54db2dcf498ec3ad904de75e,Starbucks Coffee,14.610561402829001,120.99100130718041,2310,UST Carpark,9,#d0bbff
1972,553463de498ed9e3d6e2b5fd,Seattle's Best Coffee,14.609762181446307,120.99176307325148,1000,University of Santo Tomas,9,#d0bbff
1974,57c03391498edc7bd7d837a8,Coffee Bean and Tea Leaf,14.601276,120.98983,420,Recto Ave.,9,#d0bbff
1977,4f3ba270e4b0d6152f6a6e8f,Starbucks Coffee,14.602657560316345,120.97408998824206,7094,"Ground Flr, Lucky Chinatown Mall",9,#d0bbff
1988,5028cdc2e4b05b9e02a2cf02,Coffee Avenue,14.610427611751678,120.99017232101494,675,2nd Flr. UST Multi Deck Parking,9,#d0bbff
1989,4cd7475ab6962c0fc4b72f96,Starbucks Coffee,14.590114370652024,120.98223924636841,7421,"UG/F SM City Manila, Natividad Almeda-Lopez St",9,#d0bbff
1993,4bda44e6a8d976b0477b0cb5,Starbucks Coffee,14.593945612461793,120.97557663917542,5775,"Puerta de Isabel II, Intramuros",9,#d0bbff
1994,53c7d475498ef1316906e11e,"Beanleaf Coffee, Tea And Sausage-Ubelt-Loyola",14.603962713374546,120.98924810678066,324,"904 S.H Loyola St.,",9,#d0bbff
1995,4fcc9e79121de859850feeac,D' Cream Coffee & Tea,14.605471045407624,120.98876639232523,769,P. Campa,9,#d0bbff
2011,4e4da892814dd49447e715a6,Starbucks Coffee,14.573171172292941,120.98131637856876,6344,"Ground Flr, JP Laurel Memorial Bldg, Roxas Blvd",9,#d0bbff
2044,568fa863498e89c6809a140a,Bean Belt Coffee Shop,14.614030326245407,120.99088928235432,212,"Sampaloc, Manila",9,#d0bbff
2158,4ce6792af865370429dfa2c4,Starbucks Coffee,14.583803,121.07566100000001,13990,"Ground Flr, Silver City Auto Mall",8,#ff9f9a
2159,5570f70f498e61f52899ab9c,Starbucks Coffee,14.587798100114204,121.06320770826711,2341,"Ground Flr, The Sapphire Bloc, Sapphire Rd",8,#ff9f9a
2164,4b6acbd1f964a520b5e02be3,The Coffee Bean & Tea Leaf,14.58671862,121.0613355,8885,Ortigas Park,8,#ff9f9a
2197,57d2c067498e55c54c14fb53,Café Molave,14.61152,121.09764399999999,19,"#28 Molave St. Octagon Village, Brgy Dela Paz",8,#ff9f9a
2201,4d920302939e5481e681d99e,Kopi Kopi Cafe & Kitchen,14.600096533606234,121.11442866034794,1223,Village East Avenue,8,#ff9f9a
2205,5183bb64498e5e7bca67ea9f,Coffee shop saint anthony,14.609670999999999,121.09937,2,Ground floor,8,#ff9f9a
2291,4b8a5421f964a520af6832e3,Starbucks Coffee,14.60194538483318,121.05276719174256,4381,26 Missouri St,8,#ff9f9a
2292,4b7514c2f964a5204ffd2de3,The Coffee Bean & Tea Leaf,14.60332213,121.05179790000001,8714,"Ground Flr, Promenade, Greenhills Shopping Center",8,#ff9f9a
2294,4d06fbd2dc45a09310b3f6c6,Starbucks Coffee,14.592277094648473,121.0591603662334,18149,"2nd Flr, Robinsons Galleria (Veranda)",8,#ff9f9a
2296,4c74748c66be6dcbdeeebd0f,Seattle's Best Coffee,14.59799090760874,121.04592578309669,1901,"Cardinal Santos Medical Center, Wilson St.",8,#ff9f9a
2306,4c2dbdf4987f20a143e349aa,Starbucks Coffee,14.584423000000001,121.057123475,12597,"4th Flr, SM Megamall (The Atrium)",8,#ff9f9a
2308,4bc9103ab6c49c74aed48d91,Starbucks Coffee,14.60285377048926,121.05095744132996,12216,"Ground Flr, Theatre Mall, Greenhills Shopping Center",8,#ff9f9a
2312,4ba83eacf964a52016d339e3,Starbucks Coffee,14.581685144813564,121.0552584428546,10118,"Ground Flr, Shangri-La Plaza",8,#ff9f9a
2313,4d07ac7fc2e53704559aca67,Starbucks Coffee,14.582379004433744,121.05176210403442,8404,"Ground Flr, Worldwide Corporate Center",8,#ff9f9a
2314,4b6c1c32f964a52060242ce3,Starbucks Coffee,14.585838237735365,121.05988811412422,13764,"Ground Flr, The Podium",8,#ff9f9a
2316,511abb0fe4b0dbbd86d30076,Starbucks Coffee,14.589732999999999,121.067856,6767,"G/F, Rockwell Business Center Tower I",8,#ff9f9a
2317,4bc5acde69369521df508488,Starbucks Coffee,14.580032383246019,121.05983018875122,7285,"G/F Pearl Plaza, Pearl Dr",8,#ff9f9a
2322,4bbda287f57ba593bb44aeb9,The Coffee Bean & Tea Leaf,14.58448022,121.0571522,6465,"3rd Flr, The Atrium, SM Megamall",8,#ff9f9a
2325,51ff1930498e70c6ecfc8d87,Starbucks Coffee,14.57866177877504,121.05411171913148,6442,"The Portal, Greenfield District",8,#ff9f9a
2333,4e9164906da174e28ea14f13,Starbucks Coffee,14.591213618593105,121.0596641921652,3661,"4th Flr, Robinsons Galleria (Cinema Level)",8,#ff9f9a
2336,4e40b3bed164f2d277bb7175,The Coffee Bean & Tea Leaf,14.58107599,121.0553902,7716,"Ground Flr, Shangri-La Plaza",8,#ff9f9a
2337,4bc59535ccbcef3ba3aae6d2,The Coffee Bean & Tea Leaf,14.59010703,121.06041370000001,3778,"Ground Flr, Robinsons Galleria",8,#ff9f9a
2338,4b768672f964a52060502ee3,Seattle's Best Coffee,14.583823492691915,121.05780562381882,6865,"Ground Flr, SM Megamall (Megastrip B)",8,#ff9f9a
2339,54ba44d6498ec165df930842,Toby's Estate Coffee Roasters,14.587890873687305,121.06110288348734,2254,Ruby Road,8,#ff9f9a
2401,50c33604e4b029171348087f,Starbucks Coffee,14.579415907594994,121.0843322852986,1226,Hampton Gardens Arcade,8,#ff9f9a
2426,5051e88be4b0b0fc41578829,Daily Brew® Coffee & Tea Shop,14.560563756773073,121.10167583899477,844,Block 2 Lot 15 Greenwoods Ave. Phase 1-D Greenwoods Executive Village,8,#ff9f9a
2427,4fa4d5ffe4b0ac15cf45726c,Starbucks Coffee,14.58636893652308,121.07982109520785,8467,The Grove by Rockwell,8,#ff9f9a
2439,4ba30af7f964a520452938e3,The Coffee Bean & Tea Leaf,14.5505785,121.0516966,16288,B:8 Bonifacio High Street,0,#92c6ff
2480,4d6cd823edc26dcb4fb1bfa4,Fior Cafe,14.549515542507026,121.05505690535576,61,GF Market! Market!,0,#92c6ff
2482,4cd226fb48b83704c79afdde,Ala Eh! Cafe Amadeo,14.579511728704,121.047233408967,848,California Garden Square,8,#ff9f9a
2573,4e2c90b0091ac5a470e5f567,Starbucks Coffee,14.579461299086145,121.05855345726013,8947,"Ground Flr, Hanston Square, 17 San Miguel Ave, Ortigas Center",8,#ff9f9a
2584,4b6f87aff964a5208df42ce3,Starbucks Coffee,14.582732033776292,121.06201887130736,4973,"Ground Flr, East Tektite Tower",8,#ff9f9a
2587,4bb1a382f964a520159d3ce3,Starbucks Coffee,14.581162025156946,121.05481058128778,8428,"6th Flr, Shangri-La Plaza",8,#ff9f9a
2588,502cae7ce4b0b5040e1df661,Tully's Coffee,14.583126595312972,121.06326341629028,2578,"Ground Flr, The Exchange Regency",8,#ff9f9a
2591,4b8dba74f964a520dd0a33e3,Starbucks Coffee,14.570842940221127,121.04841470718384,16062,G/F Robinsons Cybergate Tower II,0,#92c6ff
2614,4ee16e3c775b247302bdc098,Allegro Cafe Italiano,14.574505863226848,121.05685953432621,112,Unilab Main Office,8,#ff9f9a
2673,57569ada498e564849d35ba9,Starbucks Coffee,14.574773000735865,121.01966505317701,521,"Ground Flr, Circuit Lane, Circuit Makati",0,#92c6ff
2677,53226eb2498e4f073839ff54,Toby's Estate Coffee Roasters,14.560260242518131,121.0251920398046,6681,Ground Floor V Corporate Center,0,#92c6ff
2678,4b6aa5d3f964a520a5da2be3,Starbucks Coffee,14.559285503598108,121.01975798606873,17592,G/F Easton Place,0,#92c6ff
2679,4ef72b6e0aafbcb31c3b9e57,Starbucks Coffee,14.565079873687178,121.0368275642395,8933,"R1 Level, Power Plant Mall, Amorsolo Dr",0,#92c6ff
2680,4ca77fe65a1e9521e5958bce,The Coffee Bean & Tea Leaf,14.5661107,121.0299879,5789,"Ground Flr, A. Venue Mall, Makati Ave",0,#92c6ff
2682,537f05f1498e0fe17cc5a488,The Coffee Bean & Tea Leaf,14.563068,121.02177900000001,2092,G/F Jazz Residences,0,#92c6ff
2683,4fa4f3dde4b09571dec65249,Starbucks Coffee,14.563210738678286,121.03731036186218,7228,"Ground Flr, One Rockwell (West Tower), Rockwell Dr",0,#92c6ff
2689,4b8b4888f964a520cb9a32e3,Starbucks Coffee,14.559591840594786,121.02312684059143,8293,"Ground Flr, Alpap I Bldg, Salcedo Village",0,#92c6ff
2690,4b6ff9c4f964a52002022de3,Starbucks Coffee,14.56181406912224,121.01667076349257,10437,"G/F The Columns Tower 3, 6821 Ayala Ave",0,#92c6ff
2692,4b7218bff964a520806e2de3,The Coffee Bean & Tea Leaf,14.560468799999999,121.0236035,7669,"Ground Flr, Four Seasons Salcedo, Tordesila St",0,#92c6ff
2693,4c09b6e3a1b32d7fbf4198f0,Starbucks Coffee,14.557081422327554,121.0182559490204,7635,"Ground Flr, Plaza One Hundred",0,#92c6ff
2694,4bb1feaff964a52071b03ce3,Starbucks Coffee,14.5586589685817,121.02498485236684,9040,"Ground Flr, ChinaBank Bldg, Paseo de Roxas Ave",0,#92c6ff
2695,4b585fcbf964a520ee5428e3,Starbucks Coffee,14.558922064173878,121.01783386809588,8592,"G/F Standard Chartered Bldg, 6788 Ayala Ave",0,#92c6ff
2696,4ba09ca0f964a520487437e3,Starbucks Coffee,14.55880782472059,121.02329850196838,5219,"G/F Pearl Bank Center, Valero St",0,#92c6ff
2697,4b5e42f3f964a520998629e3,The Coffee Bean & Tea Leaf,14.55964404,121.01631609999998,10852,"Ground Flr, Convergys One Bldg, Salcedo St",0,#92c6ff
2698,4f99f075e4b03d140afb653e,Starbucks Coffee,14.55136213114159,121.02730035781859,11653,"Ground Flr, Glorietta 5",0,#92c6ff
2701,5381ad1c498eaf0c790624c3,The Coffee Bean & Tea Leaf,14.565484,121.02750400000001,1029,G/F Century City Mall,0,#92c6ff
2703,4b63d707f964a520c5932ae3,Starbucks Coffee,14.551237514885793,121.02643132209778,21595,"4th Flr, Glorietta 4",0,#92c6ff
2704,56b5daba498e1af5ca03cc7d,Black Canyon Coffee,14.575757511399178,121.01991144905105,338,"Ground Flr, Circuit Lane, Circuit Makati",0,#92c6ff
2705,4c8dc38a1992a1cd8620d8fb,Starbucks Coffee,14.5608639134028,121.01622819900513,15437,"3rd Flr, RCBC Plaza (Podium)",0,#92c6ff
2707,4b9ee205f964a5203e0837e3,Starbucks Coffee,14.557508251697913,121.02344493459448,5719,"8755 Philcom Bldg, Paseo de Roxas Ave",0,#92c6ff
2709,4b72af98f964a520bb832de3,The Coffee Bean & Tea Leaf,14.56518806,121.0363628,4303,"R3 Level, Power Plant Mall, Amorsolo Dr",0,#92c6ff
2713,515d7155e4b0d45b15fab685,Starbucks Coffee,14.558973974012694,121.0063362121582,6244,G/F Cash & Carry,0,#92c6ff
2714,5301b26d498ece7a1c9a963c,Toby’s Estate Coffee Roasters,14.565484400225852,121.02767266178316,1354,"Shop 312, Century City Mall",0,#92c6ff
2716,4bced92c68f976b0aa976683,Starbucks Coffee,14.557312475460893,121.01985454559326,4768,"G/F Security Bank Centre, Ayala Ave",0,#92c6ff
2723,51b07c56498e1fffa9beaa37,The Gramercy Café,14.565495822721536,121.02873656981072,208,"36th Fl, The Gramercy Residences",0,#92c6ff
2816,4fa794d8e4b0752c6ae7e9bc,Starbucks Coffee,14.555476704075089,121.02312574918099,3031,"Ground Flr, Makati Stock Exchange Bldg",0,#92c6ff
2820,51a555c8498ea14072196f23,Seattle's Best Coffee,14.556067458805034,121.020017847114,3256,Dela Rosa St,0,#92c6ff
2823,4b7b3e84f964a5202c5a2fe3,Starbucks Coffee,14.555796347114635,121.02104544639587,5790,"3/F The Enterprise Center (Tower 2), Paseo de Roxas Ave",0,#92c6ff
2828,4c60b2b554ac0f47785bb621,Starbucks Coffee,14.555625003187439,121.01636499166487,4911,"G/F Cristina Condominium, V.A. Rufino St",0,#92c6ff
2830,4d55244148ea6ea8ae8cd1a3,The Coffee Bean & Tea Leaf,14.55644304,121.0238261,7794,"Ayala Triangle Gardens, Ayala Ave",0,#92c6ff
2831,4b72c392f964a52077872de3,Seattle's Best Coffee,14.552262337926305,121.02170340392529,14749,"Ground Flr, Greenbelt 3",0,#92c6ff
2835,5134067fe4b0d7076ef316c9,J.CO Donuts & Coffee,14.549795176618753,121.0258303988639,5660,"Ground Flr, Glorietta 2",0,#92c6ff
2837,4bc6926cf360ef3bad02dc2d,The Coffee Bean & Tea Leaf,14.551431699999998,121.02058500000001,2260,"Ground Flr, The Residences at Greenbelt (Laguna Tower)",0,#92c6ff
2838,4bdc281a63c5c9b6c0912a68,Bo's Coffee,14.551461715573197,121.02674313446255,9390,"Ground Flr, Glorietta 5",0,#92c6ff
2839,4b9e880bf964a52063ec36e3,Seattle's Best Coffee,14.558818250451877,121.0199506483483,7386,"Unit G2, Ponte Salcedo",0,#92c6ff
2841,51a451ed498e5fd308c76d91,Starbucks Coffee,14.557883616999414,121.02654933929442,2718,"2/F Zuellig Bldg, Paseo de Roxas Ave",0,#92c6ff
2842,4c04553539d476b0846531a7,Starbucks Coffee,14.561497351003867,121.0213565826416,3685,"G/F The World Centre, H.V. Dela Costa St, Salcedo Village",0,#92c6ff
2843,4b7cab00f964a5203ba02fe3,Blenz Coffee,14.558330144808783,121.01719379425049,5711,"Ground Flr, Solaris One Bldg., Dela Rosa St.",0,#92c6ff
2844,4d019eac0dae37046414c542,Starbucks Coffee,14.5560942921799,121.0226833680025,1573,"Mezzanine, Ayala Tower One & Exchange Plaza",0,#92c6ff
2845,4fd73863e4b0b28c87435dd6,Starbucks Coffee,14.551476362647605,121.02614164352416,1397,"Ground Flr, Marks & Spencer Store, Glorietta 4",0,#92c6ff
2848,56f907c0498ec6d1f1ab6225,Starbucks Coffee,14.541620055991125,121.0188586631667,848,"Ground Flr, Alphaland Southgate Mall",0,#92c6ff
2849,5597bfe5498e69837957808e,Habitual Coffee,14.557014471470847,121.01342659024252,566,2135 Chino Roses Ave,0,#92c6ff
2851,4fdbcb28e4b056d3bcd4b918,Bo's Coffee,14.56172739318748,121.0289829471745,2116,"Jupiter St, Brgy Bel-Air",0,#92c6ff
2877,56400cf0cd103c7d6f896617,Cafe Crevaza,14.557995254561035,121.01361139673502,46,Ground Floor Kings Court Annex Building,0,#92c6ff
2881,5604ffa1498e3722812b1ba3,Waroeng Coffee Shop,14.559270336605177,121.00855991761334,39,The Collective Malugay Street,0,#92c6ff
3002,4c94333e94a0236abbb88a12,Starbucks Coffee,14.558566015871769,121.03274013964553,5184,"28 Jupiter St, Bel-Air Village",0,#92c6ff
3003,53743fc8498e2019bd8b5169,Starbucks Coffee,14.550750584069204,121.04444771905442,4109,"8 Forbestown Rd, Bonifacio Global City",0,#92c6ff
3004,54771e98498eab888fa0180c,Starbucks Coffee,14.55203038876822,121.02667593943909,226,Rustan's Supermarket,0,#92c6ff
3006,4da5b4eda86e226c26bc9c14,Starbucks Coffee,14.553558848102384,121.04469966307087,13305,"G/F Crescent Park Residences, 30th Street cor. 2nd Avenue, Bonifacio Global City, Taguig",0,#92c6ff
3038,518f7bd4498e59f76f83766f,Illy Café Delizio,14.55282636687719,121.02290689945221,172,"2nd Flr, Powerbooks, Greenbelt 4",0,#92c6ff
3040,4fcdd81110811d1a20915432,The Cafe Uno,14.558870130719788,121.02702140808105,2,Mandarin hotel,0,#92c6ff
3041,4fcefd9d10813a71e87ac8f6,Island Cafe,14.553324827890012,121.02399587631227,3,"Makati Shangri-La, Lobby, Ayala Ave. cor. Makati Ave.",0,#92c6ff
3042,50ef7ea0e4b0ffc3b5648ef1,Travel Cafe Philippines,14.55402660369873,121.02274322509766,2,Legaspi Street Legaspi Village,0,#92c6ff
3049,4fcef9f910813a71e87a7017,Spuntino Coffee Shop,14.55141405456074,121.02730035781859,1,Olympia Condotel 7912 Makati Avenue corner Sto. Tomas Street,0,#92c6ff
3327,55bb0e75498efc8d8216d771,Costa Coffee,14.552766493505194,121.0529687330752,986,"G/F One World Place, 32nd St, Bonifacio Global City",0,#92c6ff
3328,4b7fc96ef964a520b93d30e3,Starbucks Coffee,14.549915295464606,121.05294633961049,4969,"3rd Flr, Fully Booked (Bonifacio High Street)",0,#92c6ff
3330,508317fb805503c4fb47dde4,The Coffee Bean & Tea Leaf,14.54932016,121.04675390000001,5694,"Ground Flr, Net Lima Center",0,#92c6ff
3331,4de127e952b1c1b3ce44ad83,Starbucks Coffee,14.55495976855294,121.04617212534076,11705,32nd St,0,#92c6ff
3333,4ef26b850aaf88e561ff305c,Seattle's Best Coffee,14.549252385976212,121.05523604981585,5159,"Ground Flr, Market! Market!",0,#92c6ff
3335,540d0729498e0ff160597816,Toby's Estate Coffee Roasters,14.552758293969436,121.05235850967104,1627,"G/F EcoTower, 32nd St, Bonifacio Global City",0,#92c6ff
3339,4ba16bc5f964a5208bb537e3,Seattle's Best Coffee,14.550770203299955,121.05116128921507,6785,B:3 Bonifacio High Street,0,#92c6ff
3340,4c0ba567bbc676b061ca4bd5,Bo's Coffee,14.550926846870684,121.050085540234,4823,B:1 Bonifacio High Street,0,#92c6ff
3341,5459f8b7498ec18f7e299261,Starbucks Coffee,14.548049391753047,121.04732573032379,1301,"Ground Flr, RCBC Savings Bank Corporate Center",0,#92c6ff
3342,55b7105e498eef4fe527e6cf,J.CO Donuts & Coffee,14.55435454598959,121.05428994012158,339,"Ground Flr, Kidzania Park Triangle, BGC",0,#92c6ff
3343,4bb1bd31f964a5200ca13ce3,Starbucks Coffee,14.535151042724149,121.0476851463318,13595,"G/F One World Square, Upper McKinley Rd, McKinley Hill",0,#92c6ff
3345,53b63136498e711637343926,Starbucks Coffee,14.551476835705369,121.04840597860226,2126,"Upper Ground Fl, Central Square, Bonifacio High Street",0,#92c6ff
3350,526a2a5f11d221695674cc9d,LUNA Specialty Coffee,14.553220721595638,121.0507573583277,2342,Unit 3 & 4 NAC Tower BGC,0,#92c6ff
3357,5008b2f9e4b0b96fdabbf627,Starbucks Coffee,14.555506818099424,121.04838358428893,2323,"Ground Flr, St. Luke's Medical Center",0,#92c6ff
3360,4b458d55f964a520d60d26e3,The Coffee Bean & Tea Leaf,14.55249662,121.0447004,8998,Burgos Circle,0,#92c6ff
3362,507e8bece4b08ec3d143f245,The Coffee Bean & Tea Leaf - CBTL™ Coffee Bar,14.55029001,121.0529594,801,"3rd Flr, Old Navy Bdlg., B:7 Bonifacio High Street",0,#92c6ff
3367,562f0448498e9ad69e2217f8,The Coffee Bean & Tea Leaf Philippines,14.531703679153695,121.07294082641606,1409,"Ground Flr, Starmall Prima, Cayetano Ave",0,#92c6ff
3398,56b72354498ebb939ab8d660,Creme Cafe and Tea Bar,14.547100590827448,121.07044556118849,32,Brgy. Magtanggol,0,#92c6ff
3406,4e0c554dd22d9e3b2fc11ada,Florgelato / Flor Cafe,14.549682990860902,121.05495053820644,38,Market! Market!,0,#92c6ff
3511,54d99cf4498e35c124cf706b,J.CO Donuts & Coffee,14.550726904446847,121.04444771905442,762,"Ground Flr, 8 Forbes Town Road",0,#92c6ff
3523,5536a120498e7ecc499af86b,Dipdenza Coffee,14.549731847954526,121.04829960557684,382,Fort Bonifacio,0,#92c6ff
3528,4bd110b99854d13a651bf94d,Starbucks Coffee,14.54739560852184,121.03479506725182,4835,"2/F San Antonio Plaza Arcade, McKinley Rd, Forbes Park",0,#92c6ff
3541,4dd34fa4b0fb0dcdadf3e48e,San Francisco Coffee,14.549935347466306,121.0456794403489,259,Net one center,0,#92c6ff
3570,4d2824ebec272d43184b354c,Alamid Cafe Xpress (inside ROX),14.550645586709967,121.04962706565857,30,Bonifacio High Street,0,#92c6ff
3662,56650e6a498eb6bda0f81dbb,Starbucks Coffee,14.520461087974697,121.01404821095778,1541,"3rd Level, Ninoy Aquino International Airport Terminal 3, Kiss & Fly Mall Area",5,#b0e0e6
3663,4cf8b9238df52c0ffd5e96be,Starbucks Coffee,14.51890760638316,121.0197687149048,5598,"2nd Flr, Newport Mall",5,#b0e0e6
3665,4d776ad5bc888cfa171be973,Bo's Coffee,14.518611166073454,121.01369539959272,1667,NAIA Terminal 3 Departure Area Ramp,5,#b0e0e6
3667,4ca89606f47ea143b4577621,The Coffee Bean & Tea Leaf,14.51881307,121.01988829999999,5722,"2nd Flr, Newport Mall, Resorts World Manila",5,#b0e0e6
3668,4c333d8609a99c74b7ca0b2a,Starbucks Coffee,14.535981876947904,121.01865291595459,7231,"Gateway Centre, Paseo de Magallanes",5,#b0e0e6
3669,4c0904e0340720a1b2fd8393,Bo's Coffee,14.519233220994144,121.01734106737152,3154,"Ground Flr, Star Cruises Bldg",5,#b0e0e6
3670,4c775375411c9c74605318e2,Starbucks Coffee,14.536622332578911,121.0205610357645,5859,"Ground Flr, Allegro Bldg",5,#b0e0e6
3680,4bed3bc6e3562d7fd0abfef8,Seattle's Best Coffee,14.520168281537378,121.01395860816898,2966,NAIA Terminal 3,5,#b0e0e6
3715,4bc34eff920eb713963d1d2c,Cafe Bonjour,14.519572322842205,121.01693630218506,146,NAIA Terminal 3,5,#b0e0e6
3723,4bc3d8bf74a9a5937d33d5f6,Mrs. Fields Cafe,14.520622398822608,121.01225054230757,4299,Ninoy Aquino International Airport - Terminal 3,5,#b0e0e6
3742,4bcbe070937ca5933467aa92,Cafe de Lipa,14.536231126605893,120.98230361938477,14,SM Mall of Asia,5,#b0e0e6
3837,4be75664cf200f473c9a153c,Starbucks Coffee,14.456743760637458,121.03595969732729,13807,"Santana Grove, Dr. Arcadio Santos Ave",3,#d0bbff
3839,4e06e86ed4c03ae0b9c6ea60,Starbucks Coffee,14.455438772630782,121.0116094350815,9539,"Ground Flr, D. Square Bldg, BF Homes Parañaque",3,#d0bbff
3859,51a4caff498e3795e233d12a,Starbucks Coffee,14.125297514875918,120.97071647644043,10971,"Calamba Rd, Brgy San Jose",6,#92c6ff
3919,4e1ac9c9c65b6bfb59245cc5,Subi-Monte Café,14.454582716475045,120.9269510610552,121,Covelandia Road,3,#d0bbff
4044,4e4fa86ee4cdc76dc9b37622,Starbucks Coffee,14.10226806563246,120.95204964359269,18196,"Emilio Aguinaldo Hwy, Crossing West",6,#92c6ff
4055,54d619d6498e574bdca13830,The Coffee Bean & Tea Leaf,14.450566,120.978481,958,"Ground Flr, Starmall Las Piñas",3,#d0bbff
4068,52915896498e2d5c67d1d965,Cafe Alezon,14.4509975484551,121.003849867307,430,"146 Tropical ave, BF Homes",3,#d0bbff
4164,536202fe498e715fd46542f1,Starbucks Coffee,14.41508887177076,121.04066289665873,2534,"The River Park, Festival Supermall",3,#d0bbff
4167,516cc7a0e4b06da2ce6c5ce3,Starbucks Coffee,14.39235710268234,121.01598143577576,1455,"Rustan's Supermarket Fresh, Ayala Alabang Village",3,#d0bbff
4172,4c6fe342d274b60cfec9d70d,The Coffee Bean & Tea Leaf,14.42336823,121.02970590000001,8630,"Town Plaza, Alabang Town Center",3,#d0bbff
4176,51aad624498e9e3a6b9bb079,Starbucks Coffee,14.376150672408118,121.01236814761585,7589,"Evia Lifestyle City, Daang Hari Rd",3,#d0bbff
4208,4cc44fcd4fcfbfb731aabe24,Seattle's Best Coffee,14.417617580804274,121.03954870292499,6825,"Festival Supermall, Corporate Ave",3,#d0bbff
4231,4c36a819dfb0e21e538aaba8,Café Antonio,14.176585633540073,121.25194072723387,428,National Highway,2,#ff9f9a
4234,54604825498e3953213f1908,Entablado LB Cafe,14.167782362786154,121.24368722856087,208,Vega Center,2,#ff9f9a
4243,517256c6498e82ce9e5bb581,Cafe Amadeo,14.301981568365633,120.95533297819372,106,SM Dasmariñas,3,#d0bbff
4245,4b524ec2f964a520477627e3,Seisha Coffee Shop,14.587598421554482,121.17211550075466,1353,P. Oliveros st.,8,#ff9f9a
4510,5590dbae498e4c955d938e2a,Costa Coffee,14.609000066726901,121.08052632965502,2268,Eastwood Ave,8,#ff9f9a
4536,4f439ea07beb9a3ad84a096b,"The Coffee Bean & Tea Leaf,  Inc. Head Office",14.601431396498395,121.08074069023131,353,"Unit 4 #108, E. Rodriguez Jr. Ave, Libis",8,#ff9f9a
4537,4f0ee42be4b0281b8db50cec,Bo's Coffee,14.607485912006789,121.07905428797228,673,"MDC100 E. Rodriguez Jr. Ave., Libis",8,#ff9f9a
4549,4ba4e69ef964a520dac038e3,Starbucks Coffee,14.610225050343542,121.07991456985474,6875,"4th Flr, Eastwood Mall",8,#ff9f9a
4557,4cc412bd3d7fa1cdb2a9a95f,Ghenne's Coffee Shop,14.603782799476617,121.07969795860966,208,Shopwise,8,#ff9f9a
4558,4e3758efd164374eb6867059,Dexter's Bakeshop & Coffee Shop,14.612650319580178,121.07057990236609,233,White Plains,8,#ff9f9a
4623,573d3faf498e71521269de67,Starbucks Coffee,14.650661760892762,121.0750410636454,698,U.P. Town Center 2,1,#97f0aa
4627,576a0ebecd10cea1698ddc36,The Coffee Bean & Tea Leaf,14.651504898534034,121.07527055428669,510,U.P. Town Center,1,#97f0aa
